GEOSCAN 3 (RS92S3)      
1 64893U 25155T   26188.19637730  .00014165  00000+0  40430-3 0  9999
2 64893  97.4547 158.3163 0008563 107.9222 252.2956 15.36110865 83929
INNOSAT 3 (RS92S0)      
1 64894U 25155U   26188.20196306  .00031382  00000+0  65669-3 0  9992
2 64894  97.4493 160.1982 0008305 108.2619 251.9535 15.45368549 84056
KNACKSAT-2              
1 67683U 98067XZ  26187.43025761  .00050889  00000+0  57855-3 0  9994
2 67683  51.6265 197.5608 0008259 296.8985  63.1164 15.61755488 23280
