OBJECT_NAME,OBJECT_ID,EPOCH,MEAN_MOTION,ECCENTRICITY,INCLINATION,RA_OF_ASC_NODE,ARG_OF_PERICENTER,MEAN_ANOMALY,EPHEMERIS_TYPE,CLASSIFICATION_TYPE,NORAD_CAT_ID,ELEMENT_SET_NO,REV_AT_EPOCH,BSTAR,MEAN_MOTION_DOT,MEAN_MOTION_DDOT
GEOSCAN 3 (RS92S3),2025-155T,2026-07-07T04:42:46.998720,15.36110865,.0008563,97.4547,158.3163,107.9222,252.2956,0,U,64893,999,8392,.4043E-3,.14165E-3,0
INNOSAT 3 (RS92S0),2025-155U,2026-07-07T04:50:49.608384,15.45368549,.0008305,97.4493,160.1982,108.2619,251.9535,0,U,64894,999,8405,.65669E-3,.31382E-3,0
KNACKSAT-2,1998-067XZ,2026-07-06T10:19:34.257504,15.61755488,.00082597,51.6265,197.5608,296.8985,63.1164,0,U,67683,999,2328,.57854596E-3,.50889E-3,0
